{
  "type": "FeatureCollection",
  "features": [
    {
      "type": "Feature",
      "properties": {
        "norad_id": 67096,
        "name": "STARLINK-36228",
        "group": "last-30-days",
        "lat": 66.7160802413793,
        "lon": -27.331998776079306,
        "alt_km": 338.20973046585004,
        "timestamp": "2025-12-26T14:28:46.399363+00:00",
        "meta_object_name": "STARLINK-36228",
        "meta_object_id": "2025-298X",
        "meta_epoch": "2025-12-26T06:00:02.999808",
        "meta_mean_motion": 15.76930962,
        "meta_eccentricity": 0.00035489,
        "meta_inclination": 69.9966,
        "meta_ra_of_asc_node": 211.5094,
        "meta_arg_of_pericenter": 272.1318,
        "meta_mean_anomaly": 345.942,
        "meta_ephemeris_type": 0,
        "meta_classification_type": "U",
        "meta_norad_cat_id": 67096,
        "meta_element_set_no": 999,
        "meta_rev_at_epoch": 309,
        "meta_bstar": -0.012447636,
        "meta_mean_motion_dot": -0.0177831,
        "meta_mean_motion_ddot": 0,
        "tle_line1": "1 67096U 25298X   25360.25003472 -.01778310  00000+0 -12448-1 0  9991",
        "tle_line2": "2 67096  69.9966 211.5094 0003548 272.1318 345.9420 15.76930962  3098"
      },
      "geometry": {
        "type": "Point",
        "coordinates": [
          -27.331998776079306,
          66.7160802413793
        ]
      }
    },
    {
      "type": "Feature",
      "properties": {
        "norad_id": 67097,
        "name": "STARLINK-36222",
        "group": "last-30-days",
        "lat": 65.66511219152513,
        "lon": -23.159011349146105,
        "alt_km": 338.32582006162374,
        "timestamp": "2025-12-26T14:28:46.399375+00:00",
        "meta_object_name": "STARLINK-36222",
        "meta_object_id": "2025-298Y",
        "meta_epoch": "2025-12-26T06:00:02.999808",
        "meta_mean_motion": 15.76930411,
        "meta_eccentricity": 0.00036229,
        "meta_inclination": 69.996,
        "meta_ra_of_asc_node": 211.5077,
        "meta_arg_of_pericenter": 269.5034,
        "meta_mean_anomaly": 350.5586,
        "meta_ephemeris_type": 0,
        "meta_classification_type": "U",
        "meta_norad_cat_id": 67097,
        "meta_element_set_no": 999,
        "meta_rev_at_epoch": 309,
        "meta_bstar": -0.012480115,
        "meta_mean_motion_dot": -0.0178243,
        "meta_mean_motion_ddot": 0,
        "tle_line1": "1 67097U 25298Y   25360.25003472 -.01782430  00000+0 -12480-1 0  9996",
        "tle_line2": "2 67097  69.9960 211.5077 0003622 269.5034 350.5586 15.76930411  3096"
      },
      "geometry": {
        "type": "Point",
        "coordinates": [
          -23.159011349146105,
          65.66511219152513
        ]
      }
    },
    {
      "type": "Feature",
      "properties": {
        "norad_id": 67098,
        "name": "STARLINK-36205",
        "group": "last-30-days",
        "lat": 64.43188778970051,
        "lon": -19.09043761341116,
        "alt_km": 338.53050058625377,
        "timestamp": "2025-12-26T14:28:46.399385+00:00",
        "meta_object_name": "STARLINK-36205",
        "meta_object_id": "2025-298Z",
        "meta_epoch": "2025-12-26T06:00:02.999808",
        "meta_mean_motion": 15.76921774,
        "meta_eccentricity": 0.00037428,
        "meta_inclination": 69.9962,
        "meta_ra_of_asc_node": 211.5052,
        "meta_arg_of_pericenter": 269.6834,
        "meta_mean_anomaly": 352.5013,
        "meta_ephemeris_type": 0,
        "meta_classification_type": "U",
        "meta_norad_cat_id": 67098,
        "meta_element_set_no": 999,
        "meta_rev_at_epoch": 314,
        "meta_bstar": -0.012488321,
        "meta_mean_motion_dot": -0.01782982,
        "meta_mean_motion_ddot": 0,
        "tle_line1": "1 67098U 25298Z   25360.25003472 -.01782982  00000+0 -12488-1 0  9997",
        "tle_line2": "2 67098  69.9962 211.5052 0003742 269.6834 352.5013 15.76921774  3149"
      },
      "geometry": {
        "type": "Point",
        "coordinates": [
          -19.09043761341116,
          64.43188778970051
        ]
      }
    },
    {
      "type": "Feature",
      "properties": {
        "norad_id": 67099,
        "name": "STARLINK-36193",
        "group": "last-30-days",
        "lat": 69.70042681442514,
        "lon": -49.48023580292357,
        "alt_km": 348.4381107511781,
        "timestamp": "2025-12-26T14:28:46.399396+00:00",
        "meta_object_name": "STARLINK-36193",
        "meta_object_id": "2025-298AA",
        "meta_epoch": "2025-12-26T06:00:02.999808",
        "meta_mean_motion": 15.738011,
        "meta_eccentricity": 0.00035059,
        "meta_inclination": 69.9977,
        "meta_ra_of_asc_node": 211.5151,
        "meta_arg_of_pericenter": 267.69,
        "meta_mean_anomaly": 346.0506,
        "meta_ephemeris_type": 0,
        "meta_classification_type": "U",
        "meta_norad_cat_id": 67099,
        "meta_element_set_no": 999,
        "meta_rev_at_epoch": 309,
        "meta_bstar": -0.020335105,
        "meta_mean_motion_dot": -0.02466324,
        "meta_mean_motion_ddot": 0,
        "tle_line1": "1 67099U 25298AA  25360.25003472 -.02466324  00000+0 -20335-1 0  9998",
        "tle_line2": "2 67099  69.9977 211.5151 0003505 267.6900 346.0506 15.73801100  3091"
      },
      "geometry": {
        "type": "Point",
        "coordinates": [
          -49.48023580292357,
          69.70042681442514
        ]
      }
    },
    {
      "type": "Feature",
      "properties": {
        "norad_id": 67100,
        "name": "STARLINK-36215",
        "group": "last-30-days",
        "lat": 60.75954031800198,
        "lon": -10.104881380942107,
        "alt_km": 338.8143428309859,
        "timestamp": "2025-12-26T14:28:46.399408+00:00",
        "meta_object_name": "STARLINK-36215",
        "meta_object_id": "2025-298AB",
        "meta_epoch": "2025-12-26T06:00:02.999808",
        "meta_mean_motion": 15.76933859,
        "meta_eccentricity": 0.00037123,
        "meta_inclination": 69.9962,
        "meta_ra_of_asc_node": 211.4977,
        "meta_arg_of_pericenter": 271.0791,
        "meta_mean_anomaly": 356.608,
        "meta_ephemeris_type": 0,
        "meta_classification_type": "U",
        "meta_norad_cat_id": 67100,
        "meta_element_set_no": 999,
        "meta_rev_at_epoch": 314,
        "meta_bstar": -0.01249054,
        "meta_mean_motion_dot": -0.01784075,
        "meta_mean_motion_ddot": 0,
        "tle_line1": "1 67100U 25298AB  25360.25003472 -.01784075  00000+0 -12491-1 0  9990",
        "tle_line2": "2 67100  69.9962 211.4977 0003712 271.0791 356.6080 15.76933859  3140"
      },
      "geometry": {
        "type": "Point",
        "coordinates": [
          -10.104881380942107,
          60.75954031800198
        ]
      }
    },
    {
      "type": "Feature",
      "properties": {
        "norad_id": 67101,
        "name": "STARLINK-36200",
        "group": "last-30-days",
        "lat": 63.30352644446751,
        "lon": -15.922114304310004,
        "alt_km": 338.4752519911244,
        "timestamp": "2025-12-26T14:28:46.399418+00:00",
        "meta_object_name": "STARLINK-36200",
        "meta_object_id": "2025-298AC",
        "meta_epoch": "2025-12-26T06:00:02.999808",
        "meta_mean_motion": 15.76926013,
        "meta_eccentricity": 0.00035911,
        "meta_inclination": 69.9967,
        "meta_ra_of_asc_node": 211.5027,
        "meta_arg_of_pericenter": 267.6804,
        "meta_mean_anomaly": 356.2917,
        "meta_ephemeris_type": 0,
        "meta_classification_type": "U",
        "meta_norad_cat_id": 67101,
        "meta_element_set_no": 999,
        "meta_rev_at_epoch": 314,
        "meta_bstar": -0.012469575,
        "meta_mean_motion_dot": -0.01780764,
        "meta_mean_motion_ddot": 0,
        "tle_line1": "1 67101U 25298AC  25360.25003472 -.01780764  00000+0 -12470-1 0  9999",
        "tle_line2": "2 67101  69.9967 211.5027 0003591 267.6804 356.2917 15.76926013  3143"
      },
      "geometry": {
        "type": "Point",
        "coordinates": [
          -15.922114304310004,
          63.30352644446751
        ]
      }
    },
    {
      "type": "Feature",
      "properties": {
        "norad_id": 67102,
        "name": "STARLINK-36255",
        "group": "last-30-days",
        "lat": 3.96047517027587,
        "lon": -124.02183894365206,
        "alt_km": 333.8560698874371,
        "timestamp": "2025-12-26T14:28:46.399428+00:00",
        "meta_object_name": "STARLINK-36255",
        "meta_object_id": "2025-299A",
        "meta_epoch": "2025-12-26T06:00:02.999808",
        "meta_mean_motion": 15.79891976,
        "meta_eccentricity": 0.00014973,
        "meta_inclination": 42.9971,
        "meta_ra_of_asc_node": 233.8739,
        "meta_arg_of_pericenter": 280.7547,
        "meta_mean_anomaly": 234.2366,
        "meta_ephemeris_type": 0,
        "meta_classification_type": "U",
        "meta_norad_cat_id": 67102,
        "meta_element_set_no": 999,
        "meta_rev_at_epoch": 298,
        "meta_bstar": -0.010741315,
        "meta_mean_motion_dot": -0.01801743,
        "meta_mean_motion_ddot": 0,
        "tle_line1": "1 67102U 25299A   25360.25003472 -.01801743  00000+0 -10741-1 0  9991",
        "tle_line2": "2 67102  42.9971 233.8739 0001497 280.7547 234.2366 15.79891976  2986"
      },
      "geometry": {
        "type": "Point",
        "coordinates": [
          -124.02183894365206,
          3.96047517027587
        ]
      }
    }
  ]
}